CCSDS_OMM_VERS = 2.0
CREATION_DATE  = 
ORIGINATOR     = 

OBJECT_NAME    = STARLINK-36967
OBJECT_ID      = 2026-039AD
CENTER_NAME    = EARTH
REF_FRAME      = TEME
TIME_SYSTEM    = UTC
MEAN_ELEMENT_THEORY = SGP/SGP4

EPOCH          = 2026-03-16T06:00:02.999808
MEAN_MOTION    = 15.62393744
ECCENTRICITY   = .00013447
INCLINATION    = 42.9998
RA_OF_ASC_NODE = 14.8854
ARG_OF_PERICENTER = 260.4705
MEAN_ANOMALY   = 50.5720

EPHEMERIS_TYPE = 0
CLASSIFICATION_TYPE = U
NORAD_CAT_ID   = 68013
ELEMENT_SET_NO = 999
REV_AT_EPOCH   = 393
BSTAR          = -.23159627E-1
MEAN_MOTION_DOT = -.1871124E-1
MEAN_MOTION_DDOT = 0

CCSDS_OMM_VERS = 2.0
CREATION_DATE  = 
ORIGINATOR     = 

OBJECT_NAME    = STARLINK-36985
OBJECT_ID      = 2026-039AE
CENTER_NAME    = EARTH
REF_FRAME      = TEME
TIME_SYSTEM    = UTC
MEAN_ELEMENT_THEORY = SGP/SGP4

EPOCH          = 2026-03-16T02:25:58.889856
MEAN_MOTION    = 15.80896899
ECCENTRICITY   = .00020746
INCLINATION    = 42.9988
RA_OF_ASC_NODE = 15.3533
ARG_OF_PERICENTER = 189.1857
MEAN_ANOMALY   = 170.8977

EPHEMERIS_TYPE = 0
CLASSIFICATION_TYPE = U
NORAD_CAT_ID   = 68014
ELEMENT_SET_NO = 999
REV_AT_EPOCH   = 265
BSTAR          = -.27110125E-2
MEAN_MOTION_DOT = -.511574E-2
MEAN_MOTION_DDOT = 0

CCSDS_OMM_VERS = 2.0
CREATION_DATE  = 
ORIGINATOR     = 

OBJECT_NAME    = STARLINK-36335
OBJECT_ID      = 2026-040A
CENTER_NAME    = EARTH
REF_FRAME      = TEME
TIME_SYSTEM    = UTC
MEAN_ELEMENT_THEORY = SGP/SGP4

EPOCH          = 2026-03-16T06:00:02.999808
MEAN_MOTION    = 15.89106375
ECCENTRICITY   = .00013285
INCLINATION    = 97.2704
RA_OF_ASC_NODE = 23.9651
ARG_OF_PERICENTER = 107.5117
MEAN_ANOMALY   = 278.8749

EPHEMERIS_TYPE = 0
CLASSIFICATION_TYPE = U
NORAD_CAT_ID   = 68015
ELEMENT_SET_NO = 999
REV_AT_EPOCH   = 343
BSTAR          = -.5068575E-2
MEAN_MOTION_DOT = -.1278664E-1
MEAN_MOTION_DDOT = 0

CCSDS_OMM_VERS = 2.0
CREATION_DATE  = 
ORIGINATOR     = 

OBJECT_NAME    = STARLINK-36923
OBJECT_ID      = 2026-040B
CENTER_NAME    = EARTH
REF_FRAME      = TEME
TIME_SYSTEM    = UTC
MEAN_ELEMENT_THEORY = SGP/SGP4

EPOCH          = 2026-03-16T06:00:02.999808
MEAN_MOTION    = 15.89148194
ECCENTRICITY   = .00012662
INCLINATION    = 97.2708
RA_OF_ASC_NODE = 23.9695
ARG_OF_PERICENTER = 99.5618
MEAN_ANOMALY   = 295.5458

EPHEMERIS_TYPE = 0
CLASSIFICATION_TYPE = U
NORAD_CAT_ID   = 68016
ELEMENT_SET_NO = 999
REV_AT_EPOCH   = 348
BSTAR          = -.50940875E-2
MEAN_MOTION_DOT = -.1286731E-1
MEAN_MOTION_DDOT = 0

CCSDS_OMM_VERS = 2.0
CREATION_DATE  = 
ORIGINATOR     = 

OBJECT_NAME    = STARLINK-36568
OBJECT_ID      = 2026-040C
CENTER_NAME    = EARTH
REF_FRAME      = TEME
TIME_SYSTEM    = UTC
MEAN_ELEMENT_THEORY = SGP/SGP4

EPOCH          = 2026-03-16T06:00:02.999808
MEAN_MOTION    = 15.89178860
ECCENTRICITY   = .00013083
INCLINATION    = 97.2704
RA_OF_ASC_NODE = 23.9711
ARG_OF_PERICENTER = 101.8488
MEAN_ANOMALY   = 297.4467

EPHEMERIS_TYPE = 0
CLASSIFICATION_TYPE = U
NORAD_CAT_ID   = 68017
ELEMENT_SET_NO = 999
REV_AT_EPOCH   = 348
BSTAR          = -.51066918E-2
MEAN_MOTION_DOT = -.1291348E-1
MEAN_MOTION_DDOT = 0

CCSDS_OMM_VERS = 2.0
CREATION_DATE  = 
ORIGINATOR     = 

OBJECT_NAME    = STARLINK-36930
OBJECT_ID      = 2026-040D
CENTER_NAME    = EARTH
REF_FRAME      = TEME
TIME_SYSTEM    = UTC
MEAN_ELEMENT_THEORY = SGP/SGP4

EPOCH          = 2026-03-16T06:00:02.999808
MEAN_MOTION    = 15.89120924
ECCENTRICITY   = .0001323
INCLINATION    = 97.2702
RA_OF_ASC_NODE = 23.9673
ARG_OF_PERICENTER = 110.7824
MEAN_ANOMALY   = 279.9590

EPHEMERIS_TYPE = 0
CLASSIFICATION_TYPE = U
NORAD_CAT_ID   = 68018
ELEMENT_SET_NO = 999
REV_AT_EPOCH   = 348
BSTAR          = -.50479103E-2
MEAN_MOTION_DOT = -.1274864E-1
MEAN_MOTION_DDOT = 0

CCSDS_OMM_VERS = 2.0
CREATION_DATE  = 
ORIGINATOR     = 

OBJECT_NAME    = STARLINK-36921
OBJECT_ID      = 2026-040E
CENTER_NAME    = EARTH
REF_FRAME      = TEME
TIME_SYSTEM    = UTC
MEAN_ELEMENT_THEORY = SGP/SGP4

EPOCH          = 2026-03-16T06:00:02.999808
MEAN_MOTION    = 15.89269628
ECCENTRICITY   = .00014274
INCLINATION    = 97.2711
RA_OF_ASC_NODE = 23.9754
ARG_OF_PERICENTER = 113.5813
MEAN_ANOMALY   = 293.6914

EPHEMERIS_TYPE = 0
CLASSIFICATION_TYPE = U
NORAD_CAT_ID   = 68019
ELEMENT_SET_NO = 999
REV_AT_EPOCH   = 348
BSTAR          = -.50671715E-2
MEAN_MOTION_DOT = -.1287789E-1
MEAN_MOTION_DDOT = 0

CCSDS_OMM_VERS = 2.0
CREATION_DATE  = 
ORIGINATOR     = 

OBJECT_NAME    = STARLINK-36928
OBJECT_ID      = 2026-040F
CENTER_NAME    = EARTH
REF_FRAME      = TEME
TIME_SYSTEM    = UTC
MEAN_ELEMENT_THEORY = SGP/SGP4

EPOCH          = 2026-03-16T06:00:02.999808
MEAN_MOTION    = 15.89246903
ECCENTRICITY   = .00013645
INCLINATION    = 97.2704
RA_OF_ASC_NODE = 23.9722
ARG_OF_PERICENTER = 107.9734
MEAN_ANOMALY   = 295.0312

EPHEMERIS_TYPE = 0
CLASSIFICATION_TYPE = U
NORAD_CAT_ID   = 68020
ELEMENT_SET_NO = 999
REV_AT_EPOCH   = 348
BSTAR          = -.50796513E-2
MEAN_MOTION_DOT = -.1289244E-1
MEAN_MOTION_DDOT = 0

CCSDS_OMM_VERS = 2.0
CREATION_DATE  = 
ORIGINATOR     = 

OBJECT_NAME    = STARLINK-36916
OBJECT_ID      = 2026-040H
CENTER_NAME    = EARTH
REF_FRAME      = TEME
TIME_SYSTEM    = UTC
MEAN_ELEMENT_THEORY = SGP/SGP4

EPOCH          = 2026-03-16T06:00:02.999808
MEAN_MOTION    = 15.89337778
ECCENTRICITY   = .0001393
INCLINATION    = 97.2707
RA_OF_ASC_NODE = 23.9782
ARG_OF_PERICENTER = 109.7187
MEAN_ANOMALY   = 306.0431

EPHEMERIS_TYPE = 0
CLASSIFICATION_TYPE = U
NORAD_CAT_ID   = 68022
ELEMENT_SET_NO = 999
REV_AT_EPOCH   = 348
BSTAR          = -.51102752E-2
MEAN_MOTION_DOT = -.1301423E-1
MEAN_MOTION_DDOT = 0

CCSDS_OMM_VERS = 2.0
CREATION_DATE  = 
ORIGINATOR     = 

OBJECT_NAME    = STARLINK-36871
OBJECT_ID      = 2026-040J
CENTER_NAME    = EARTH
REF_FRAME      = TEME
TIME_SYSTEM    = UTC
MEAN_ELEMENT_THEORY = SGP/SGP4

EPOCH          = 2026-03-16T06:00:02.999808
MEAN_MOTION    = 15.89373666
ECCENTRICITY   = .0001383
INCLINATION    = 97.2704
RA_OF_ASC_NODE = 23.9792
ARG_OF_PERICENTER = 103.0034
MEAN_ANOMALY   = 317.0321

EPHEMERIS_TYPE = 0
CLASSIFICATION_TYPE = U
NORAD_CAT_ID   = 68023
ELEMENT_SET_NO = 999
REV_AT_EPOCH   = 348
BSTAR          = -.51317905E-2
MEAN_MOTION_DOT = -.1470071E-1
MEAN_MOTION_DDOT = .59887042E-3

CCSDS_OMM_VERS = 2.0
CREATION_DATE  = 
ORIGINATOR     = 

OBJECT_NAME    = STARLINK-36891
OBJECT_ID      = 2026-040K
CENTER_NAME    = EARTH
REF_FRAME      = TEME
TIME_SYSTEM    = UTC
MEAN_ELEMENT_THEORY = SGP/SGP4

EPOCH          = 2026-03-16T06:00:02.999808
MEAN_MOTION    = 15.89364951
ECCENTRICITY   = .00013338
INCLINATION    = 97.2705
RA_OF_ASC_NODE = 23.9816
ARG_OF_PERICENTER = 101.8641
MEAN_ANOMALY   = 323.0109

EPHEMERIS_TYPE = 0
CLASSIFICATION_TYPE = U
NORAD_CAT_ID   = 68024
ELEMENT_SET_NO = 999
REV_AT_EPOCH   = 348
BSTAR          = -.51590934E-2
MEAN_MOTION_DOT = -.1313963E-1
MEAN_MOTION_DDOT = 0

