STARLINK-36967          
1 68013U 26039AD  26075.25003472 -.01871124  00000+0 -23160-1 0  9999
2 68013  42.9998  14.8854 0001344 260.4705  50.5720 15.62393744  3935
STARLINK-36985          
1 68014U 26039AE  26075.10137604 -.00511574  00000+0 -27110-2 0  9998
2 68014  42.9988  15.3533 0002074 189.1857 170.8977 15.80896899  2658
STARLINK-36335          
1 68015U 26040A   26075.25003472 -.01278664  00000+0 -50686-2 0  9997
2 68015  97.2704  23.9651 0001328 107.5117 278.8749 15.89106375  3433
STARLINK-36923          
1 68016U 26040B   26075.25003472 -.01286731  00000+0 -50941-2 0  9996
2 68016  97.2708  23.9695 0001266  99.5618 295.5458 15.89148194  3486
STARLINK-36568          
1 68017U 26040C   26075.25003472 -.01291348  00000+0 -51067-2 0  9997
2 68017  97.2704  23.9711 0001308 101.8488 297.4467 15.89178860  3485
STARLINK-36930          
1 68018U 26040D   26075.25003472 -.01274864  00000+0 -50479-2 0  9998
2 68018  97.2702  23.9673 0001323 110.7824 279.9590 15.89120924  3481
STARLINK-36921          
1 68019U 26040E   26075.25003472 -.01287789  00000+0 -50672-2 0  9994
2 68019  97.2711  23.9754 0001427 113.5813 293.6914 15.89269628  3484
STARLINK-36928          
1 68020U 26040F   26075.25003472 -.01289244  00000+0 -50797-2 0  9992
2 68020  97.2704  23.9722 0001364 107.9734 295.0312 15.89246903  3481
STARLINK-36916          
1 68022U 26040H   26075.25003472 -.01301423  00000+0 -51103-2 0  9990
2 68022  97.2707  23.9782 0001393 109.7187 306.0431 15.89337778  3482
STARLINK-36871          
1 68023U 26040J   26075.25003472 -.01470071  59887-3 -51318-2 0  9996
2 68023  97.2704  23.9792 0001383 103.0034 317.0321 15.89373666  3484
STARLINK-36891          
1 68024U 26040K   26075.25003472 -.01313963  00000+0 -51591-2 0  9995
2 68024  97.2705  23.9816 0001333 101.8641 323.0109 15.89364951  3486
